0 CZ-2C R/B
1 34840U 09021B   13282.37718601  .00024427  00000-0  53836-3 0  3227
2 34840 097.4971 024.5935 0068001 344.4137 015.5014 15.41432663248732
0 CZ-2C R/B
1 34840U 09021B   13282.89651431  .00020829  00000-0  45939-3 0  3239
2 34840 097.4970 025.1266 0067970 342.5384 017.3525 15.41447111248812
0 CZ-2C R/B
1 34840U 09021B   13285.23341752  .00018242  00000-0  40184-3 0  3257
2 34840 097.4966 027.5254 0067731 334.0430 025.7424 15.41527987249174
0 CZ-2C R/B
1 34840U 09021B   13286.33691383  .00018148  00000-0  39945-3 0  3266
2 34840 097.4969 028.6584 0067593 329.9842 029.7537 15.41562897249348
0 CZ-2C R/B
1 34840U 09021B   13287.37547560  .00019501  00000-0  42861-3 0  3274
2 34840 097.4975 029.7250 0067488 326.1798 033.5152 15.41597431249505
0 CZ-2C R/B
1 34840U 09021B   13288.28419394  .00027081  00000-0  59307-3 0  3284
2 34840 097.4977 030.6583 0067376 322.8904 036.7694 15.41642818249646
0 CZ-2C R/B
1 34840U 09021B   13289.38760411  .00024540  00000-0  53698-3 0  3290
2 34840 097.4980 031.7918 0067295 318.8493 040.7689 15.41691892249816
0 CZ-2C R/B
1 34840U 09021B   13290.75059595  .00025542  00000-0  55785-3 0  3301
2 34840 097.4982 033.1920 0067191 313.8836 045.6872 15.41747033250020
0 CZ-2C R/B
1 34840U 09021B   13292.17843653  .00021756  00000-0  47491-3 0  3314
2 34840 097.4981 034.6591 0067049 308.6186 050.9069 15.41804304250247
0 CZ-2C R/B
1 34840U 09021B   13294.38499670  .00025662  00000-0  55816-3 0  3337
2 34840 097.4975 036.9262 0066815 300.5248 058.9414 15.41892958250581
0 CZ-2C R/B
1 34840U 09021B   13295.81270455  .00025938  00000-0  56318-3 0  3349
2 34840 097.4973 038.3936 0066679 295.3227 064.1122 15.41951181250803
